STARLINK-1622           
1 46128U 20057M   21275.48194054  .00000053  00000-0  22413-4 0  9991
2 46128  53.0562 345.5325 0000795  89.0766 271.0314 15.06397664 63237
STARLINK-1623           
1 46129U 20057N   21275.45614547  .00000339  00000-0  41643-4 0  9996
2 46129  53.0561 345.6470 0001288  95.6384 264.4752 15.06398356 63237
STARLINK-1624           
1 46130U 20057P   21275.48930989 -.00001098  00000-0 -54828-4 0  9996
2 46130  53.0548 345.4966 0001076  99.0347 261.0763 15.06399134 63234
STARLINK-1625           
1 46131U 20057Q   21275.43586193 -.00007790  00000-0 -50403-3 0  9995
2 46131  53.0565   5.7382 0001464  97.6588 262.4568 15.06445074 62944
STARLINK-1630           
1 46132U 20057R   21275.47457221  .00000396  00000-0  45499-4 0  9992
2 46132  53.0561  25.5618 0001188  96.7236 263.3889 15.06400434 62673
STARLINK-1637           
1 46133U 20057S   21274.94379784  .00001181  00000-0  98125-4 0  9998
2 46133  53.0547 347.9512 0001382  87.2051 272.9096 15.06406170 63151
STARLINK-1638           
1 46134U 20057T   21275.47825654 -.00000949  00000-0 -44845-4 0  9993
2 46134  53.0544 345.5550 0001227  95.6481 264.4647 15.06399434 63234
STARLINK-1639           
1 46135U 20057U   21275.49300167  .00000992  00000-0  85478-4 0  9996
2 46135  53.0553 345.4765 0001046  94.3080 265.8028 15.06394964 63233
STARLINK-1643           
1 46136U 20057V   21275.01106703  .00001616  00000-0  12736-3 0  9995
2 46136  53.0547  17.6515 0001374  98.5901 261.5244 15.06397691 62748
STARLINK-1586           
1 46137U 20057W   21275.42850247  .00000551  00000-0  55868-4 0  9991
2 46137  53.0550   5.7663 0001295  92.2150 267.8987 15.06398454 62947
STARLINK-1590           
1 46138U 20057X   21275.29395741  .00001026  00000-0  87784-4 0  9990
2 46138  53.0566  26.3682 0001317 106.5067 253.6067 15.06396456 62645
STARLINK-1594           
1 46140U 20057Z   21275.45244929  .00000708  00000-0  66405-4 0  9995
2 46140  53.0550 345.6699 0000972  95.0217 265.0883 15.06405001 63237
STARLINK-1596           
1 46141U 20057AA  21275.49668330  .00000782  00000-0  71350-4 0  9993
2 46141  53.0546 345.4707 0000976 110.7695 249.3399 15.06405621 63235
STARLINK-1597           
1 46142U 20057AB  21275.44877350  .00006365  00000-0  44569-3 0  9997
2 46142  53.0564  25.6718 0001175 102.6797 257.4324 15.06407611 62665
STARLINK-1599           
1 46143U 20057AC  21275.48251887  .00121820  00000-0  78346-2 0  9996
2 46143  53.0564   5.5152 0004002 146.1823 213.9422 15.07433055 62950
STARLINK-1606           
1 46144U 20057AD  21275.48010076  .00001092  00000-0  92189-4 0  9991
2 46144  53.0561   5.5360 0001311  90.5735 269.5405 15.06397369 62968
STARLINK-1608           
1 46146U 20057AF  21274.73001585  .00001181  00000-0  98144-4 0  9991
2 46146  53.0569  28.9144 0001390 107.2687 252.8454 15.06395689 61901
STARLINK-1611           
1 46147U 20057AG  21274.71158374  .00001231  00000-0  10154-3 0  9999
2 46147  53.0564  28.9927 0001296  91.6907 268.4230 15.06400738 63158
STARLINK-1616           
1 46148U 20057AH  21275.44692912  .00000427  00000-0  47540-4 0  9998
2 46148  53.0551   5.6811 0001240 102.2672 257.8456 15.06399961 62949
STARLINK-1620           
1 46149U 20057AJ  21274.73186090  .00001085  00000-0  91722-4 0  9997
2 46149  53.0564   8.8993 0001136  97.1011 263.0107 15.06391561 63450
STARLINK-1629           
1 46150U 20057AK  21274.79267044  .00000870  00000-0  77306-4 0  9997
2 46150  53.0559  28.6145 0001302 105.0070 255.1063 15.06407539 61919
STARLINK-1631           
1 46151U 20057AL  21275.43218924  .00000599  00000-0  59083-4 0  9993
2 46151  53.0562   5.7590 0001423  96.5690 263.5461 15.06393262 62946
STARLINK-1634           
1 46152U 20057AM  21274.68578744  .00000633  00000-0  61370-4 0  9990
2 46152  53.0561  29.1006 0001159 102.7301 257.3817 15.06396573 61890
STARLINK-1636           
1 46153U 20057AN  21274.78714829  .00001181  00000-0  98159-4 0  9992
2 46153  53.0563   8.6498 0001190  94.8049 265.3076 15.06403952 62184
STARLINK-1642           
1 46154U 20057AP  21274.79728134  .00001704  00000-0  13322-3 0  9997
2 46154  53.0564  18.6022 0001225 101.1819 258.9307 15.06404038 62053
STARLINK-1667           
1 46155U 20057AQ  21275.48564950  .00000461  00000-0  49869-4 0  9994
2 46155  53.0546 345.5177 0001251  85.0120 275.1011 15.06385363 63234
STARLINK-1545           
1 46156U 20057AR  21274.68025202  .00001317  00000-0  10729-3 0  9991
2 46156  53.0549   9.1336 0001172  95.7020 264.4102 15.06404855 63428
STARLINK-1587           
1 46157U 20057AS  21275.46351312  .00000072  00000-0  23706-4 0  9990
2 46157  53.0546 345.6063 0001444  96.1248 263.9905 15.06398465 63233
STARLINK-1589           
1 46158U 20057AT  21274.59731689  .00000225  00000-0  34010-4 0  9993
2 46158  53.0556 349.5010 0001135  96.1009 264.0109 15.06404469 63704
STARLINK-1595           
1 46159U 20057AU  21275.43402952  .00002132  00000-0  16202-3 0  9997
2 46159  53.0555  25.7511 0001174 110.2178 249.8937 15.06394144 62663
STARLINK-1598           
1 46160U 20057AV  21274.96040256  .00000059  00000-0  22848-4 0  9991
2 46160  53.0556   7.8694 0001183  91.1628 268.9497 15.06403099 62872
STARLINK-1600           
1 46161U 20057AW  21274.67288632 -.00000434  00000-0 -10234-4 0  9997
2 46161  53.0557   9.1589 0000983 103.3399 256.7700 15.06402131 63420
STARLINK-1603           
1 46162U 20057AX  21275.47273052  .00000045  00000-0  21934-4 0  9992
2 46162  53.0555   5.5664 0001313  93.1053 267.0086 15.06400431 62965
STARLINK-1610           
1 46163U 20057AY  21274.94011821 -.00001834  00000-0 -10425-3 0  9999
2 46163  53.0570 347.9649 0001426  99.0559 261.0592 15.06392628 63156
STARLINK-1612           
1 46164U 20057AZ  21275.46719911  .00000447  00000-0  48915-4 0  9996
2 46164  53.0551 345.6041 0001196  97.0085 263.1040 15.06405983 63232
STARLINK-1613           
1 46165U 20057BA  21274.81479407 -.00000567  00000-0 -19179-4 0  9993
2 46165  53.0567  28.5305 0001277  92.7143 267.3992 15.06398181 61913
STARLINK-1615           
1 46166U 20057BB  21275.05438106  .00000598  00000-0  59004-4 0  9995
2 46166  53.0555  27.4404 0001194 106.0462 254.0659 15.06399985 62614
STARLINK-1626           
1 46167U 20057BC  21274.73738996 -.00001035  00000-0 -50608-4 0  9990
2 46167  53.0563  28.8717 0001297  96.5222 263.5915 15.06397185 61908
STARLINK-1627           
1 46168U 20057BD  21274.57518768  .00000632  00000-0  61320-4 0  9999
2 46168  53.0549 339.5967 0001046 102.4426 257.6680 15.06394693 62575
STARLINK-1628           
1 46169U 20057BE  21275.47887059 -.00001123  00000-0 -57886-4 0  9992
2 46169  53.0008  25.5338 0001411 102.4113 257.7033 15.05600262 62652
STARLINK-1633           
1 46171U 20057BG  21275.44324120  .00002297  00000-0  17302-3 0  9996
2 46171  53.0559   5.7009 0001167  96.9208 263.1914 15.06400897 62945
STARLINK-1635           
1 46172U 20057BH  21274.99356217  .00000391  00000-0  45143-4 0  9996
2 46172  53.0567   7.7261 0001084 108.4557 251.6550 15.06395703 62870
STARLINK-1640           
1 46173U 20057BJ  21275.03963779 -.00000240  00000-0  28042-5 0  9994
2 46173  53.0563  27.5156 0001274 102.0921 258.0211 15.06393406 62600
STARLINK-1641           
1 46174U 20057BK  21275.31239311  .00004960  00000-0  35155-3 0  9997
2 46174  53.0551  26.2807 0001053  98.8293 261.2815 15.06409994 62646
STARLINK-1734           
1 46325U 20062A   21275.45660416  .00000747  00000-0  69034-4 0  9993
2 46325  53.0559  40.6429 0001547 111.5329 248.5825 15.06415856 61476
STARLINK-1654           
1 46326U 20062B   21274.83412577 -.00000026  00000-0  17175-4 0  9998
2 46326  53.0536  88.4345 0001612  83.7427 276.3746 15.06397887 60340
STARLINK-1673           
1 46327U 20062C   21275.47641903  .00001055  00000-0  89735-4 0  9990
2 46327  53.0545  85.5559 0002335  94.1223 266.0033 15.06402170 60436
STARLINK-1686           
1 46328U 20062D   21275.12441647  .00000440  00000-0  48461-4 0  9994
2 46328  53.0543  67.1323 0001761  98.5582 261.5607 15.06393941 60654
STARLINK-1695           
1 46329U 20062E   21275.42296804  .00000637  00000-0  61644-4 0  9997
2 46329  53.0523  65.7835 0002263  90.7766 269.3482 15.06406104 60700
STARLINK-1710           
1 46330U 20062F   21275.41193438 -.00000425  00000-0 -96414-5 0  9998
2 46330  53.0541  65.8418 0001790 100.9514 259.1677 15.06391187 60537
STARLINK-1719           
1 46331U 20062G   21274.78347156 -.00000155  00000-0  84804-5 0  9995
2 46331  53.0553  88.6674 0002008  85.9637 274.1582 15.06394140 60151
STARLINK-1721           
1 46332U 20062H   21274.86087667 -.00000002  00000-0  18810-4 0  9997
2 46332  53.0531  88.3162 0001882  90.7677 269.3528 15.06390738 60160
STARLINK-1723           
1 46333U 20062J   21274.80927291 -.00000276  00000-0  33517-6 0  9994
2 46333  53.0542  88.5534 0001349  93.0533 267.0610 15.06391804 60154
STARLINK-1725           
1 46334U 20062K   21274.85071298 -.00000273  00000-0  56424-6 0  9996
2 46334  53.0550  68.3540 0001600 109.0773 251.0390 15.06399036 60446
STARLINK-1727           
1 46335U 20062L   21275.43587601  .00001731  00000-0  13508-3 0  9994
2 46335  53.0532  85.7317 0001449  86.3766 273.7389 15.06393670 60438
STARLINK-1738           
1 46336U 20062M   21274.89587799  .00002088  00000-0  15901-3 0  9997
2 46336  53.0554  68.1612 0001705  91.5130 268.6055 15.06402955 60445
STARLINK-1750           
1 46337U 20062N   21274.91063915 -.00000104  00000-0  11935-4 0  9992
2 46337  53.0540  68.0902 0001677  89.5658 270.5523 15.06391888 60637
STARLINK-1752           
1 46338U 20062P   21274.76137818  .00001109  00000-0  93384-4 0  9993
2 46338  53.0536  88.7524 0002160  86.0012 274.1224 15.06400726 60142
STARLINK-1757           
1 46339U 20062Q   21275.11593076  .00331912  00000-0  24179-2 0  9998
2 46339  53.0555  51.8152 0007676 279.1842  80.8307 15.71756697 60872
